{
    "links": {
        "self": "http://www.neowsapp.com/rest/v1/neo/3028806?api_key=iIulBulltgU6a56xZRHN4H3l9WmuAYTsLGpBGhQ2"
    },
    "id": "3028806",
    "neo_reference_id": "3028806",
    "name": "(2000 CO33)",
    "designation": "2000 CO33",
    "nasa_jpl_url": "http://ssd.jpl.nasa.gov/sbdb.cgi?sstr=3028806",
    "absolute_magnitude_h": 21.1,
    "estimated_diameter": {
        "kilometers": {
            "estimated_diameter_min": 0.160160338,
            "estimated_diameter_max": 0.358129403
        },
        "meters": {
            "estimated_diameter_min": 160.1603379786,
            "estimated_diameter_max": 358.1294030194
        },
        "miles": {
            "estimated_diameter_min": 0.0995189894,
            "estimated_diameter_max": 0.2225312253
        },
        "feet": {
            "estimated_diameter_min": 525.4604432536,
            "estimated_diameter_max": 1174.9652706022
        }
    },
    "is_potentially_hazardous_asteroid": true,
    "close_approach_data": [
        {
            "close_approach_date": "2000-02-04",
            "close_approach_date_full": "2000-Feb-04 12:01",
            "epoch_date_close_approach": 949665660000,
            "relative_velocity": {
                "kilometers_per_second": "12.66970855",
                "kilometers_per_hour": "45610.9507801595",
                "miles_per_hour": "28340.8710555941"
            },
            "miss_distance": {
                "astronomical": "0.0541488077",
                "lunar": "21.0638861953",
                "kilometers": "8100546.294959599",
                "miles": "5033446.0636925062"
            },
            "orbiting_body": "Earth"
        }
    ],
    "orbital_data": {
        "orbit_id": "15",
        "orbit_determination_date": "2017-04-06 09:17:07",
        "first_observation_date": "2000-02-03",
        "last_observation_date": "2000-03-13",
        "data_arc_in_days": 39,
        "observations_used": 68,
        "orbit_uncertainty": "8",
        "minimum_orbit_intersection": ".0296089",
        "jupiter_tisserand_invariant": "3.279",
        "epoch_osculation": "2451582.5",
        "eccentricity": ".5648188567833534",
        "semi_major_axis": "2.334846819293791",
        "inclination": "18.21567853244692",
        "ascending_node_longitude": "319.7322949075481",
        "orbital_period": "1303.124820798994",
        "perihelion_distance": "1.016081308056023",
        "perihelion_argument": "178.8298518204849",
        "aphelion_distance": "3.653612330531559",
        "perihelion_time": "2451580.040229484521",
        "mean_anomaly": ".6795338185865391",
        "mean_motion": ".2762590307958915",
        "equinox": "J2000",
        "orbit_class": {
            "orbit_class_type": "APO",
            "orbit_class_description": "Near-Earth asteroid orbits which cross the Earth’s orbit similar to that of 1862 Apollo",
            "orbit_class_range": "a (semi-major axis) > 1.0 AU; q (perihelion) < 1.017 AU"
        }
    },
    "is_sentry_object": false
}